{
"type": "FeatureCollection",
"name": "Farmers_Markets",
"crs": { "type": "name", "properties": { "name": "urn:ogc:def:crs:OGC:1.3:CRS84" } },
"features": [
{ "type": "Feature", "properties": { "NAME": "Harvey Park Farmer's Market", "ADDRESS": "2250 South Quitman Street", "CITY": "Denver", "ZIP": 80219, "TYPE": "Farmers' Market", "STATUS": "Active (June-October)", "SNAP": "Yes", "DOUBLE_UP_": "Yes", "LOCATION_G": "In the parking lot of the Kunsmiller Creative Arts Academy" }, "geometry": { "type": "Point", "coordinates": [ -105.040553331074392, 39.675854625817472 ] } },
{ "type": "Feature", "properties": { "NAME": "S. Pearl St. Farmers Market", "ADDRESS": "1527 S Pearl St", "CITY": "Denver", "ZIP": 80210, "TYPE": "Farmers' Market", "STATUS": "Active (June-October)", "SNAP": "Yes", "DOUBLE_UP_": "No", "LOCATION_G": "South Pearl Street Between East Iowa Avenue and East Arkansas Avenue" }, "geometry": { "type": "Point", "coordinates": [ -104.980649983172142, 39.688853455889941 ] } },
{ "type": "Feature", "properties": { "NAME": "Central Park Farmers Market", "ADDRESS": "7601 29th Ave", "CITY": "Denver", "ZIP": 80238, "TYPE": "Farmers' Market", "STATUS": "Active (June-October)", "SNAP": "No", "DOUBLE_UP_": "No", "LOCATION_G": "Founders Green at Central Park, on Syracuse Street and 29th Avenue" }, "geometry": { "type": "Point", "coordinates": [ -104.899235959239974, 39.758053458803438 ] } },
{ "type": "Feature", "properties": { "NAME": "Union Station Farmers Market", "ADDRESS": "1701 Wynkoop St", "CITY": "Denver", "ZIP": 80202, "TYPE": "Farmers' Market", "STATUS": "Active (June-October)", "SNAP": "Yes", "DOUBLE_UP_": "No", "LOCATION_G": "Denver’s Union Station, at 17th Avenue and Wynkoop Street" }, "geometry": { "type": "Point", "coordinates": [ -105.000148836307659, 39.753199713276395 ] } },
{ "type": "Feature", "properties": { "NAME": "Highlands Farmers Market", "ADDRESS": "W 32nd Ave & Lowell Blvd", "CITY": "Denver", "ZIP": 80211, "TYPE": "Farmers' Market", "STATUS": "Active (June-October)", "SNAP": "No", "DOUBLE_UP_": "No", "LOCATION_G": "At 32nd Avenue and Lowell Boulevard" }, "geometry": { "type": "Point", "coordinates": [ -105.034632840311872, 39.762101595863371 ] } },
{ "type": "Feature", "properties": { "NAME": "Huerta Urbana Market", "ADDRESS": "2501 E. 48th Ave", "CITY": "Denver", "ZIP": 80216, "TYPE": "Farmers' Market", "STATUS": "Active (June-October)", "SNAP": "Yes", "DOUBLE_UP_": "Yes", "LOCATION_G": "Focus Points Family Resource Center" }, "geometry": { "type": "Point", "coordinates": [ -104.956928377482811, 39.784032817891521 ] } },
{ "type": "Feature", "properties": { "NAME": "City Park Farmers Market", "ADDRESS": "2551 E Colfax Ave", "CITY": "Denver", "ZIP": 80206, "TYPE": "Farmers' Market", "STATUS": "Active (June-October)", "SNAP": "Yes", "DOUBLE_UP_": "Yes", "LOCATION_G": "<Null>" }, "geometry": { "type": "Point", "coordinates": [ -104.956611128606639, 39.740399001658346 ] } },
{ "type": "Feature", "properties": { "NAME": "Green Valley Ranch", "ADDRESS": "4890 Argonne Way", "CITY": "Denver", "ZIP": 80249, "TYPE": "Farmers' Market", "STATUS": "Active (June-October)", "SNAP": "Yes", "DOUBLE_UP_": "No", "LOCATION_G": "<Null>" }, "geometry": { "type": "Point", "coordinates": [ -104.767106345206798, 39.785579296600005 ] } },
{ "type": "Feature", "properties": { "NAME": "Mo' Betta Greens Marketplace (2 locations)", "ADDRESS": "24th St & Welton St", "CITY": "Denver", "ZIP": 80205, "TYPE": "Farmers' Market", "STATUS": "Active (June-October)", "SNAP": "No", "DOUBLE_UP_": "No", "LOCATION_G": "Charles Cousin Plaza (24th and Welton St)" }, "geometry": { "type": "Point", "coordinates": [ -104.981663303302994, 39.75199889032492 ] } },
{ "type": "Feature", "properties": { "NAME": "Cherry Creek Farmers Market", "ADDRESS": "100 S Steele St", "CITY": "Denver", "ZIP": 80206, "TYPE": "Farmers' Market", "STATUS": "Active (June-October)", "SNAP": "No", "DOUBLE_UP_": "No", "LOCATION_G": "Cherry Creek Shopping Center at First Avenue and University Boulevard" }, "geometry": { "type": "Point", "coordinates": [ -104.958555043160018, 39.71728882717445 ] } },
{ "type": "Feature", "properties": { "NAME": "University Hills Farmers Market", "ADDRESS": "2999 S Colorado Blvd", "CITY": "Denver", "ZIP": 80222, "TYPE": "Farmers' Market", "STATUS": "Active (June-October)", "SNAP": "No", "DOUBLE_UP_": "No", "LOCATION_G": "University Hills Plaza" }, "geometry": { "type": "Point", "coordinates": [ -104.941316186735648, 39.66306966341628 ] } },
{ "type": "Feature", "properties": { "NAME": "GoFarm Market - Juanita Nolasco Residences", "ADDRESS": "4550 West 9th Ave", "CITY": "Denver", "ZIP": 80204, "TYPE": "Mobile Farmer's Market", "STATUS": "Active (June-October)", "SNAP": "Yes", "DOUBLE_UP_": "Yes", "LOCATION_G": "<Null>" }, "geometry": { "type": "Point", "coordinates": [ -105.045801401906829, 39.730906562841511 ] } }
]
}
