{"type":"FeatureCollection","crs":{"type":"name","properties":{"name":"EPSG:4326"}},"features":[{"type":"Feature","id":1,"geometry":{"type":"Point","coordinates":[-104.998594246695,39.7269098137291]},"properties":{"OBJECTID":1,"LIBRARY_NAME":"John \"Thunderbird Man\" Emhoolah, Jr. ","BRANCH_CODE":"BYR","GLOBALID":"69aea419-f052-4fea-ac7e-51ef2849a655","ADDRESS_ID":69509,"ADDRESS_LINE1":"675 N Santa Fe Dr","ADDRESS_LINE2":null,"CITY":"Denver","STATE":"CO","ZIP":"80204","DOOR_COUNT":32049,"CIRCULATION":18912,"TOTAL_BLDG_SQFT":3999,"STATUS":null}},{"type":"Feature","id":2,"geometry":{"type":"Point","coordinates":[-105.034566147596,39.7181543432567]},"properties":{"OBJECTID":2,"LIBRARY_NAME":"Ross-Barnum","BRANCH_CODE":"BAR","GLOBALID":"6b091457-f83e-48c9-a164-557c44c3df59","ADDRESS_ID":77271,"ADDRESS_LINE1":"3570 W 1ST Ave","ADDRESS_LINE2":null,"CITY":"Denver","STATE":"CO","ZIP":"80219","DOOR_COUNT":33864,"CIRCULATION":52057,"TOTAL_BLDG_SQFT":10500,"STATUS":null}},{"type":"Feature","id":3,"geometry":{"type":"Point","coordinates":[-105.045127612994,39.780243424876]},"properties":{"OBJECTID":3,"LIBRARY_NAME":"Smiley","BRANCH_CODE":"SMI","GLOBALID":"ab46096b-9e74-4650-b06e-e9555fd3c74c","ADDRESS_ID":27605,"ADDRESS_LINE1":"4501 W 46TH Ave","ADDRESS_LINE2":null,"CITY":"Denver","STATE":"CO","ZIP":"80212","DOOR_COUNT":66293,"CIRCULATION":122717,"TOTAL_BLDG_SQFT":4726,"STATUS":null}},{"type":"Feature","id":4,"geometry":{"type":"Point","coordinates":[-105.025243651013,39.7627920897677]},"properties":{"OBJECTID":4,"LIBRARY_NAME":"Woodbury","BRANCH_CODE":"WDB","GLOBALID":"280eeb21-7adc-49e5-8aee-7b58921e093f","ADDRESS_ID":46116,"ADDRESS_LINE1":"3265 N Federal Blvd","ADDRESS_LINE2":null,"CITY":"Denver","STATE":"CO","ZIP":"80211","DOOR_COUNT":64330,"CIRCULATION":172060,"TOTAL_BLDG_SQFT":10023,"STATUS":null}},{"type":"Feature","id":5,"geometry":{"type":"Point","coordinates":[-105.012738230944,39.6974614836639]},"properties":{"OBJECTID":5,"LIBRARY_NAME":"Athmar Park","BRANCH_CODE":"ATH","GLOBALID":"62271658-2367-4a00-b2bf-dcbff40c09a1","ADDRESS_ID":92427,"ADDRESS_LINE1":"1055 S Tejon St","ADDRESS_LINE2":null,"CITY":"Denver","STATE":"CO","ZIP":"80223","DOOR_COUNT":39933,"CIRCULATION":46305,"TOTAL_BLDG_SQFT":6478,"STATUS":null}},{"type":"Feature","id":6,"geometry":{"type":"Point","coordinates":[-105.051641641172,39.6561650103543]},"properties":{"OBJECTID":6,"LIBRARY_NAME":"Bear Valley","BRANCH_CODE":"BVL","GLOBALID":"7046309b-e817-4ea3-a9e5-04d832a9aeef","ADDRESS_ID":121573,"ADDRESS_LINE1":"5171 W Dartmouth Ave","ADDRESS_LINE2":null,"CITY":"Denver","STATE":"CO","ZIP":"80236","DOOR_COUNT":86013,"CIRCULATION":172341,"TOTAL_BLDG_SQFT":11410,"STATUS":null}},{"type":"Feature","id":7,"geometry":{"type":"Point","coordinates":[-105.026213554973,39.6824303771692]},"properties":{"OBJECTID":7,"LIBRARY_NAME":"Hadley","BRANCH_CODE":"HAD","GLOBALID":"cdfd4e12-ebeb-4187-9477-334bf3ffda14","ADDRESS_ID":101460,"ADDRESS_LINE1":"1890 S Grove St","ADDRESS_LINE2":null,"CITY":"Denver","STATE":"CO","ZIP":"80219","DOOR_COUNT":58760,"CIRCULATION":58705,"TOTAL_BLDG_SQFT":12962,"STATUS":null}},{"type":"Feature","id":8,"geometry":{"type":"Point","coordinates":[-105.034443156023,39.6985202198581]},"properties":{"OBJECTID":8,"LIBRARY_NAME":"Westwood","BRANCH_CODE":"WES","GLOBALID":"d5f89625-9fb9-47bb-bbd0-c9e0709f6cd7","ADDRESS_ID":94263,"ADDRESS_LINE1":"1000 S Lowell Blvd","ADDRESS_LINE2":null,"CITY":"Denver","STATE":"CO","ZIP":"80219","DOOR_COUNT":19212,"CIRCULATION":18239,"TOTAL_BLDG_SQFT":1073,"STATUS":null}},{"type":"Feature","id":9,"geometry":{"type":"Point","coordinates":[-104.98164902447,39.7520180419804]},"properties":{"OBJECTID":9,"LIBRARY_NAME":"Blair-Caldwell","BRANCH_CODE":"BCL","GLOBALID":"a1990cdc-d7c0-4ba9-b3ca-8ad27b07b1f3","ADDRESS_ID":54793,"ADDRESS_LINE1":"2401 Welton St","ADDRESS_LINE2":null,"CITY":"Denver","STATE":"CO","ZIP":"80205","DOOR_COUNT":19995,"CIRCULATION":21624,"TOTAL_BLDG_SQFT":34957,"STATUS":"The Blair-Caldwell African American Research Library is temporarily cl"}},{"type":"Feature","id":10,"geometry":{"type":"Point","coordinates":[-104.964722971026,39.7572993032814]},"properties":{"OBJECTID":10,"LIBRARY_NAME":"Ford-Warren","BRANCH_CODE":"FOR","GLOBALID":"fbe067b6-c908-45ad-99af-158349696ea8","ADDRESS_ID":41520,"ADDRESS_LINE1":"2825 N High St","ADDRESS_LINE2":null,"CITY":"Denver","STATE":"CO","ZIP":"80205","DOOR_COUNT":57639,"CIRCULATION":119114,"TOTAL_BLDG_SQFT":10573,"STATUS":null}},{"type":"Feature","id":11,"geometry":{"type":"Point","coordinates":[-104.840620788494,39.779866312171]},"properties":{"OBJECTID":11,"LIBRARY_NAME":"Montbello","BRANCH_CODE":"MLO","GLOBALID":"d0de5c73-4313-47ef-a66c-3807bb2f98a2","ADDRESS_ID":12074,"ADDRESS_LINE1":"12955 Albrook Dr","ADDRESS_LINE2":null,"CITY":"Denver","STATE":"CO","ZIP":"80239","DOOR_COUNT":64679,"CIRCULATION":36266,"TOTAL_BLDG_SQFT":11443,"STATUS":null}},{"type":"Feature","id":12,"geometry":{"type":"Point","coordinates":[-104.932769144953,39.7474029284429]},"properties":{"OBJECTID":12,"LIBRARY_NAME":"Park Hill","BRANCH_CODE":"PKH","GLOBALID":"805864b1-462c-4272-9ae5-5a429925de7b","ADDRESS_ID":179230,"ADDRESS_LINE1":"4705 E Montview Blvd","ADDRESS_LINE2":null,"CITY":"Denver","STATE":"CO","ZIP":"80207","DOOR_COUNT":105874,"CIRCULATION":308240,"TOTAL_BLDG_SQFT":10260,"STATUS":null}},{"type":"Feature","id":13,"geometry":{"type":"Point","coordinates":[-104.922732346701,39.763805115116]},"properties":{"OBJECTID":13,"LIBRARY_NAME":"Pauline Robinson","BRANCH_CODE":"ROB","GLOBALID":"6410914d-b097-4b92-a3ca-cfc2c7c56ff7","ADDRESS_ID":14970,"ADDRESS_LINE1":"5575 E 33RD Ave","ADDRESS_LINE2":null,"CITY":"Denver","STATE":"CO","ZIP":"80207","DOOR_COUNT":28687,"CIRCULATION":39909,"TOTAL_BLDG_SQFT":5285,"STATUS":null}},{"type":"Feature","id":14,"geometry":{"type":"Point","coordinates":[-104.952205875036,39.7210613980047]},"properties":{"OBJECTID":14,"LIBRARY_NAME":"Ross-Cherry Creek","BRANCH_CODE":"CRK","GLOBALID":"babbca12-38ee-4591-a624-5b828cbf2993","ADDRESS_ID":84797,"ADDRESS_LINE1":"305 N Milwaukee St","ADDRESS_LINE2":null,"CITY":"Denver","STATE":"CO","ZIP":"80206","DOOR_COUNT":3291,"CIRCULATION":11917,"TOTAL_BLDG_SQFT":17808,"STATUS":"The Ross-Cherry Creek Branch Library is temporarily closed until furth"}},{"type":"Feature","id":15,"geometry":{"type":"Point","coordinates":[-104.904955830711,39.7183720946871]},"properties":{"OBJECTID":15,"LIBRARY_NAME":"Schlessman Family","BRANCH_CODE":"SCH","GLOBALID":"8a25b935-cba9-4df9-b7ba-427077a729b7","ADDRESS_ID":162724,"ADDRESS_LINE1":"100 N Poplar St","ADDRESS_LINE2":null,"CITY":"Denver","STATE":"CO","ZIP":"80220","DOOR_COUNT":131211,"CIRCULATION":413231,"TOTAL_BLDG_SQFT":14884,"STATUS":null}},{"type":"Feature","id":16,"geometry":{"type":"Point","coordinates":[-104.962405461774,39.7817992874516]},"properties":{"OBJECTID":16,"LIBRARY_NAME":"Valdez-Perry","BRANCH_CODE":"VAL","GLOBALID":"082e4c45-1a1b-419e-bfad-0d1d3adcc7bb","ADDRESS_ID":179029,"ADDRESS_LINE1":"4690 N Vine St","ADDRESS_LINE2":null,"CITY":"Denver","STATE":"CO","ZIP":"80216","DOOR_COUNT":29007,"CIRCULATION":17525,"TOTAL_BLDG_SQFT":4883,"STATUS":null}},{"type":"Feature","id":17,"geometry":{"type":"Point","coordinates":[-104.982791977233,39.689398259749]},"properties":{"OBJECTID":17,"LIBRARY_NAME":"Decker","BRANCH_CODE":"DKR","GLOBALID":"415de62a-0b2e-413e-9849-c21346da57c8","ADDRESS_ID":105064,"ADDRESS_LINE1":"1501 S Logan St","ADDRESS_LINE2":null,"CITY":"Denver","STATE":"CO","ZIP":"80210","DOOR_COUNT":56866,"CIRCULATION":114925,"TOTAL_BLDG_SQFT":4932,"STATUS":null}},{"type":"Feature","id":18,"geometry":{"type":"Point","coordinates":[-104.959332604471,39.7018264739155]},"properties":{"OBJECTID":18,"LIBRARY_NAME":"Eugene Field","BRANCH_CODE":"FIE","GLOBALID":"13912b85-b762-45ed-a8c7-094d9d38471e","ADDRESS_ID":85982,"ADDRESS_LINE1":"810 S University Blvd","ADDRESS_LINE2":null,"CITY":"Denver","STATE":"CO","ZIP":"80209","DOOR_COUNT":76312,"CIRCULATION":288863,"TOTAL_BLDG_SQFT":10500,"STATUS":null}},{"type":"Feature","id":19,"geometry":{"type":"Point","coordinates":[-104.875034246887,39.6543294032559]},"properties":{"OBJECTID":19,"LIBRARY_NAME":"Hampden","BRANCH_CODE":"HMP","GLOBALID":"3981597c-75a2-4c34-984a-c9c9544d4f3d","ADDRESS_ID":179231,"ADDRESS_LINE1":"9755 E Girard Ave","ADDRESS_LINE2":null,"CITY":"Denver","STATE":"CO","ZIP":"80231","DOOR_COUNT":77840,"CIRCULATION":203382,"TOTAL_BLDG_SQFT":11560,"STATUS":null}},{"type":"Feature","id":20,"geometry":{"type":"Point","coordinates":[-104.987117590556,39.7147735310195]},"properties":{"OBJECTID":20,"LIBRARY_NAME":"Ross-Broadway","BRANCH_CODE":"BDY","GLOBALID":"c4857326-76bc-4e7f-8e80-ef50661cd447","ADDRESS_ID":80946,"ADDRESS_LINE1":"33 E Bayaud Ave","ADDRESS_LINE2":null,"CITY":"Denver","STATE":"CO","ZIP":"80209","DOOR_COUNT":51031,"CIRCULATION":117747,"TOTAL_BLDG_SQFT":4500,"STATUS":null}},{"type":"Feature","id":21,"geometry":{"type":"Point","coordinates":[-104.937772291022,39.6654190511479]},"properties":{"OBJECTID":21,"LIBRARY_NAME":"Ross-University Hills","BRANCH_CODE":"UNH","GLOBALID":"26e14b0e-b96d-4033-a713-9ed6eef9d460","ADDRESS_ID":143542,"ADDRESS_LINE1":"4310 E Amherst Ave","ADDRESS_LINE2":null,"CITY":"Denver","STATE":"CO","ZIP":"80222","DOOR_COUNT":105668,"CIRCULATION":430152,"TOTAL_BLDG_SQFT":21143,"STATUS":null}},{"type":"Feature","id":22,"geometry":{"type":"Point","coordinates":[-104.931697252562,39.689322672499]},"properties":{"OBJECTID":22,"LIBRARY_NAME":"Virginia Village","BRANCH_CODE":"VVI","GLOBALID":"42440ab9-428c-4805-abb9-af62f6ba321d","ADDRESS_ID":138200,"ADDRESS_LINE1":"1500 S Dahlia St","ADDRESS_LINE2":null,"CITY":"Denver","STATE":"CO","ZIP":"80222","DOOR_COUNT":66829,"CIRCULATION":244300,"TOTAL_BLDG_SQFT":11524,"STATUS":null}},{"type":"Feature","id":23,"geometry":{"type":"Point","coordinates":[-104.987289495838,39.7384331117716]},"properties":{"OBJECTID":23,"LIBRARY_NAME":"Central","BRANCH_CODE":"CEN","GLOBALID":"113d3fa8-ce88-43b2-8876-c94622c2773f","ADDRESS_ID":179022,"ADDRESS_LINE1":"10 W 14TH Ave","ADDRESS_LINE2":null,"CITY":"Denver","STATE":"CO","ZIP":"80204","DOOR_COUNT":124768,"CIRCULATION":255269,"TOTAL_BLDG_SQFT":540315,"STATUS":"Due to Elevate Denver Bond Program construction, Central Library is op"}},{"type":"Feature","id":26,"geometry":{"type":"Point","coordinates":[-104.900995372094,39.7590432033842]},"properties":{"OBJECTID":26,"LIBRARY_NAME":"Sam Gary","BRANCH_CODE":"SGB","GLOBALID":"b3042da0-fae5-4481-9463-eabfcc080d61","ADDRESS_ID":372322,"ADDRESS_LINE1":"2961 Roslyn St","ADDRESS_LINE2":null,"CITY":"Denver","STATE":"CO","ZIP":"80238","DOOR_COUNT":147673,"CIRCULATION":480299,"TOTAL_BLDG_SQFT":28490,"STATUS":null}},{"type":"Feature","id":27,"geometry":{"type":"Point","coordinates":[-104.766843229502,39.7849247272378]},"properties":{"OBJECTID":27,"LIBRARY_NAME":"Green Valley Ranch","BRANCH_CODE":"GVR","GLOBALID":"99665f5f-464b-4287-a235-8fac039302b2","ADDRESS_ID":356186,"ADDRESS_LINE1":"4856 N Andes Ct","ADDRESS_LINE2":null,"CITY":"Denver","STATE":"CO","ZIP":"80249","DOOR_COUNT":104422,"CIRCULATION":166756,"TOTAL_BLDG_SQFT":25602,"STATUS":null}},{"type":"Feature","id":28,"geometry":{"type":"Point","coordinates":[-105.029388832193,39.7399188500166]},"properties":{"OBJECTID":28,"LIBRARY_NAME":"Rodolfo \"Corky\" Gonzalez Branch","BRANCH_CODE":"GON","GLOBALID":"294c99fe-e4c9-4c03-847b-cb7bcd178205","ADDRESS_ID":381139,"ADDRESS_LINE1":"1498 Irving St","ADDRESS_LINE2":null,"CITY":"Denver","STATE":"CO","ZIP":"80204","DOOR_COUNT":81205,"CIRCULATION":137201,"TOTAL_BLDG_SQFT":26973,"STATUS":null}},{"type":"Feature","id":29,"geometry":{"type":"Point","coordinates":[-104.980030089226,39.7710022419928]},"properties":{"OBJECTID":29,"LIBRARY_NAME":"Bob Ragland","BRANCH_CODE":"RGL","GLOBALID":"5051f95a-33f4-4b57-a56d-6ec4db758327","ADDRESS_ID":null,"ADDRESS_LINE1":"1900 35th Street","ADDRESS_LINE2":"Suite A","CITY":"Denver","STATE":"CO","ZIP":"80216","DOOR_COUNT":18646,"CIRCULATION":10036,"TOTAL_BLDG_SQFT":7000,"STATUS":null}}]}