{"type":"FeatureCollection","crs":{"type":"name","properties":{"name":"EPSG:4326"}},"features":[{"type":"Feature","id":1,"geometry":{"type":"Polygon","coordinates":[[[-105.004183851816,39.7344867300636],[-105.004176130498,39.7344903153097],[-105.004129383895,39.7345133020986],[-105.004131927841,39.7344328612039],[-105.004136002445,39.7344153390413],[-105.004145490408,39.7344005088849],[-105.004164355585,39.7343864807702],[-105.004193102779,39.7343717315916],[-105.004243629614,39.7343498298224],[-105.004247619615,39.7343823929773],[-105.004248511927,39.7343916280487],[-105.004251161585,39.7344141780133],[-105.00425216376,39.7344233237661],[-105.004250193763,39.734435394655],[-105.004245470549,39.7344446540316],[-105.004237854505,39.7344556578409],[-105.004227232027,39.7344644527659],[-105.004211310667,39.7344734175754],[-105.004191007831,39.7344834072106],[-105.004183851816,39.7344867300636]]]},"properties":{"OBJECTID":1,"LOCATION":"La Alma / Lincoln","LOC_CODE":"315","GLOBALID":"0bffcf6f-5aa5-40c7-8a35-96ade17f2e99","ASSET_CLASS":"SKATEP","CLASS_CATEGORY":"SK8-SM","GIS_ASSET_ID":50007,"INFOR_ASSET_ID":null,"YEAR_BUILT":2018}},{"type":"Feature","id":2,"geometry":{"type":"Polygon","coordinates":[[[-104.766874642931,39.788508093323],[-104.76686879698,39.7885190455346],[-104.76686470394,39.7885338319984],[-104.766860618616,39.7885478589727],[-104.766854616225,39.7885569365783],[-104.766842666831,39.78856977502],[-104.766833710569,39.788578834409],[-104.766827728036,39.7885860132053],[-104.76682121717,39.7885966067182],[-104.76681860888,39.7886106428872],[-104.766816528696,39.7886212641622],[-104.766819339311,39.7886349540387],[-104.766825599659,39.7886482858889],[-104.766826449052,39.7886612040165],[-104.766822760939,39.7886843484381],[-104.766814781188,39.7886941732671],[-104.766805344703,39.7887020902696],[-104.766788988877,39.788712622481],[-104.766770679538,39.7887216234512],[-104.766752854597,39.788731387148],[-104.766741488891,39.7887354940938],[-104.766731623619,39.788737331594],[-104.766719316919,39.7887372549589],[-104.766700634651,39.788734859832],[-104.76668545909,39.7887324299656],[-104.766610477911,39.7887165389264],[-104.766591728957,39.788698101367],[-104.766580454655,39.7886934735714],[-104.766571121477,39.7886915165093],[-104.766557822364,39.7886921933892],[-104.766543026559,39.7886947597009],[-104.766528722876,39.7886973290761],[-104.766512482042,39.7886968482335],[-104.766427443352,39.7886845448825],[-104.766451609422,39.7885863292635],[-104.766516477029,39.7885973675624],[-104.766516622577,39.7885936227879],[-104.766545003524,39.7885826303423],[-104.766557506059,39.788581292099],[-104.766563953149,39.7885767746787],[-104.766565977957,39.7885714701765],[-104.766567113451,39.7885570451584],[-104.766568669756,39.7885494589499],[-104.766572187049,39.7885426446685],[-104.766578153936,39.7885369848624],[-104.766586065913,39.7885336161344],[-104.766602842545,39.7885299225845],[-104.766629444907,39.7885281893339],[-104.766650632118,39.7885264223533],[-104.766660993457,39.7885242080926],[-104.766665467622,39.7885200582365],[-104.766668972983,39.788514383272],[-104.766673058117,39.7885003563028],[-104.766678580327,39.7884901363217],[-104.766687095905,39.7884761371182],[-104.766694587276,39.7884659293991],[-104.766705051919,39.7884538410877],[-104.766717973866,39.7884421481099],[-104.766728391047,39.7884346170772],[-104.766735330459,39.7884301027131],[-104.766743734537,39.7884267370389],[-104.766757557731,39.788423025076],[-104.7667688958,39.788421576601],[-104.766783655782,39.7884224280446],[-104.766792508502,39.7884232427045],[-104.766806248259,39.788427505975],[-104.766815061248,39.7884321184247],[-104.766826292049,39.7884409236474],[-104.76684236994,39.7884569749175],[-104.766851619665,39.7884669071972],[-104.766856986911,39.7884714980145],[-104.766859143197,39.7884739566126],[-104.766874642931,39.788508093323]]]},"properties":{"OBJECTID":2,"LOCATION":"Town Center","LOC_CODE":"558","GLOBALID":"accd4951-fe04-4674-a1ca-cfec73ec5675","ASSET_CLASS":"SKATEP","CLASS_CATEGORY":"SK8-SM","GIS_ASSET_ID":50001,"INFOR_ASSET_ID":"109864","YEAR_BUILT":2007}},{"type":"Feature","id":3,"geometry":{"type":"Polygon","coordinates":[[[-104.806068541255,39.7935634147234],[-104.806062514331,39.793553751776],[-104.806058040126,39.7935376399233],[-104.806055461787,39.793517249802],[-104.806061520815,39.7935137109724],[-104.806071042602,39.79348803044],[-104.80610097998,39.7934596104008],[-104.80612381506,39.7934465190883],[-104.806154452828,39.7934409803519],[-104.806174850721,39.7934400282593],[-104.806182320897,39.7934343530174],[-104.806182883216,39.7934243476367],[-104.806185173391,39.7934158521761],[-104.806192594974,39.793395093504],[-104.806210533499,39.7933773265205],[-104.806226093636,39.7933678777259],[-104.806249769677,39.7933613530587],[-104.806280673533,39.7933601052973],[-104.806288766281,39.793353957053],[-104.806292694781,39.7933315798431],[-104.806304008517,39.7933121055876],[-104.806322103991,39.7932941010919],[-104.80635315405,39.7932780793754],[-104.806395867027,39.7932697520741],[-104.80643351485,39.7932737867597],[-104.806469813971,39.7932892518223],[-104.806490103607,39.793302709266],[-104.806490040364,39.7933121149504],[-104.80649002217,39.7933148509558],[-104.806489897903,39.793333299877],[-104.806489171327,39.7934413111635],[-104.806487469905,39.7935258511108],[-104.806481112638,39.7935439245823],[-104.806470440143,39.7935610194902],[-104.806444270973,39.793583265898],[-104.806420044799,39.7935964682007],[-104.80639094212,39.7936029691979],[-104.806207436874,39.7936037947167],[-104.806166063226,39.793601644485],[-104.806127844555,39.7935928404246],[-104.806093398744,39.7935773861793],[-104.806070826847,39.7935646993513],[-104.806068541255,39.7935634147234]]]},"properties":{"OBJECTID":3,"LOCATION":"Parkfield","LOC_CODE":"516","GLOBALID":"49a404b4-d726-431a-9e42-b8828f0326c4","ASSET_CLASS":"SKATEP","CLASS_CATEGORY":"SK8-SM","GIS_ASSET_ID":50002,"INFOR_ASSET_ID":"109862","YEAR_BUILT":2011}},{"type":"Feature","id":4,"geometry":{"type":"Polygon","coordinates":[[[-104.886334251499,39.7543141094097],[-104.886346354313,39.7542967124078],[-104.886357549011,39.7542855426567],[-104.886369866428,39.7542761357321],[-104.88638705794,39.7542665620044],[-104.886404829983,39.754259736397],[-104.886426775322,39.7542556231731],[-104.886445843473,39.7542551459384],[-104.886467877974,39.7542571277632],[-104.886494191611,39.7542618495768],[-104.88652083583,39.7542654198298],[-104.886549020242,39.754267735543],[-104.886586477131,39.7542672170848],[-104.886623819386,39.7542635133261],[-104.886673686962,39.7542550983173],[-104.886695626496,39.754255706705],[-104.886720383177,39.7542595418678],[-104.886740094199,39.7542669195005],[-104.886759731807,39.7542785795472],[-104.886773843975,39.754291692985],[-104.886787123635,39.7543145754269],[-104.886789802268,39.7543336416567],[-104.886787588075,39.7543550156558],[-104.886781041258,39.7543715905718],[-104.886771497847,39.7543851022274],[-104.886757797167,39.7543981259206],[-104.886739952908,39.7544090962575],[-104.886720135912,39.7544179426728],[-104.886702825234,39.7544207901316],[-104.886675078789,39.7544212766516],[-104.886655071888,39.7544192509661],[-104.886635977822,39.7544145668134],[-104.88661844893,39.754405772819],[-104.886602964484,39.7543950680504],[-104.886585597154,39.7543759252625],[-104.886570435868,39.7543688731654],[-104.886552555437,39.75436779185],[-104.886538136604,39.7543653282663],[-104.88651635016,39.7543593945566],[-104.886503139279,39.7543530118337],[-104.886487702384,39.7543409343979],[-104.886479957,39.7543318347144],[-104.886476445151,39.7543226745211],[-104.886466934819,39.7543120556931],[-104.886451188458,39.7543027769042],[-104.886435400519,39.7542983021661],[-104.886419053366,39.7542967070021],[-104.886408380335,39.7542970631952],[-104.88638913389,39.7543016297299],[-104.886372752503,39.7543121139286],[-104.886365524373,39.7543211629617],[-104.886361424853,39.7543263025234],[-104.886334251499,39.7543141094097]]]},"properties":{"OBJECTID":4,"LOCATION":"Greenway Park","LOC_CODE":"556","GLOBALID":"941a4faa-ee4e-4389-ad24-f3c783ca6801","ASSET_CLASS":"SKATEP","CLASS_CATEGORY":"SK8-SM","GIS_ASSET_ID":50003,"INFOR_ASSET_ID":"109861","YEAR_BUILT":null}},{"type":"Feature","id":5,"geometry":{"type":"Polygon","coordinates":[[[-105.003372766557,39.7597138701608],[-105.003401111525,39.7597445442802],[-105.003356373386,39.7597885538751],[-105.003351238797,39.7597953404173],[-105.003339379352,39.7598125032808],[-105.003333469915,39.7598181884548],[-105.003320831028,39.7598298845953],[-105.003307662126,39.7598360606002],[-105.003292686003,39.7598412960334],[-105.003280385526,39.7598453891383],[-105.003266354813,39.7598476361094],[-105.003252890347,39.7598503521162],[-105.003228420923,39.7598600217427],[-105.003203200084,39.7598753708929],[-105.003165093298,39.7598971171919],[-105.003144126382,39.7599044135294],[-105.003126776577,39.7599082660361],[-105.003075049903,39.7599144988652],[-105.003041568157,39.7599159770726],[-105.003022736054,39.7599182037431],[-105.003001454116,39.7599247846981],[-105.00295746599,39.7599382153702],[-105.002949639065,39.7599434805972],[-105.002933714311,39.7599570297624],[-105.00292710322,39.759961366827],[-105.002916013475,39.7599652457385],[-105.002898982147,39.7599693191761],[-105.002888196608,39.7599704265409],[-105.002874468771,39.7599701489438],[-105.002867287321,39.7599696519657],[-105.002852084917,39.7599665956607],[-105.002762755961,39.7599233373524],[-105.002539954555,39.7598120646931],[-105.00239326438,39.7597319697677],[-105.002240695733,39.7596583013423],[-105.002226663256,39.7596508571599],[-105.002218860133,39.7596426982355],[-105.002216062012,39.7596360155886],[-105.002214809538,39.7596270332967],[-105.002217384382,39.759610078308],[-105.002210066318,39.7596087574019],[-105.002197219017,39.7596197114575],[-105.002187618438,39.7596243102746],[-105.002177641717,39.7596267387126],[-105.002166539279,39.7596274054318],[-105.002153771104,39.7596272143861],[-105.002141403371,39.7596257069637],[-105.002128836993,39.7596221673064],[-105.002112919232,39.7596147154873],[-105.002098350626,39.7596026296013],[-105.00210015334,39.7595541287022],[-105.00212243773,39.7595415946603],[-105.002138099705,39.7595349900929],[-105.002152559645,39.7595323061838],[-105.002167784145,39.7595322331819],[-105.002186708905,39.759536952642],[-105.002210289237,39.7595473470806],[-105.00221872554,39.7595514181367],[-105.002242645862,39.7594336935474],[-105.002219677405,39.759417344564],[-105.002219571457,39.759417261539],[-105.002331617833,39.7592815711652],[-105.002367050648,39.75924070727],[-105.00242140724,39.7591846044532],[-105.002448317765,39.7592018211323],[-105.002540677477,39.7591787122075],[-105.00262557638,39.7591242760618],[-105.002618110598,39.7591187540234],[-105.002608203877,39.7591113273185],[-105.00260019296,39.7591024264552],[-105.002595956059,39.7590929923148],[-105.002594894996,39.759082116483],[-105.002594962767,39.7590725634906],[-105.002599159535,39.7590625609475],[-105.002606565767,39.7590514464599],[-105.002624533288,39.7590357097704],[-105.002674724641,39.7590302391459],[-105.002683328719,39.7590307424985],[-105.0026908165,39.759033162191],[-105.002694630444,39.7590370766415],[-105.002699578611,39.7590414899403],[-105.002709857398,39.7590516632794],[-105.002717850994,39.7590630076382],[-105.002720744328,39.7590763618429],[-105.002718391524,39.759092136757],[-105.002711907823,39.7591035573456],[-105.002704908325,39.7591125321787],[-105.002706763823,39.7591167401996],[-105.002722510066,39.7591182614853],[-105.002736982307,39.7591188992594],[-105.002749910424,39.7591215619024],[-105.002761520855,39.7591244934141],[-105.002773505624,39.759129787505],[-105.002786779144,39.7591389576151],[-105.002941488685,39.7593169540618],[-105.003080822924,39.7594763273492],[-105.003245927306,39.7596583752198],[-105.00326516934,39.7596786062583],[-105.003340555046,39.7597520028733],[-105.003372766557,39.7597138701608]],[[-105.00244835873,39.7596171219997],[-105.002450435671,39.7596201506364],[-105.002457941025,39.7596301748776],[-105.002466195177,39.7596399004382],[-105.002475128337,39.759649217389],[-105.002484740055,39.7596581250251],[-105.002494994814,39.759666623899],[-105.002505857692,39.7596746309346],[-105.002517293436,39.7596821737426],[-105.002529266011,39.7596891973536],[-105.002541740558,39.7596956738602],[-105.002554646052,39.7597016033134],[-105.002567982234,39.759706957952],[-105.002581678274,39.7597117100681],[-105.002595734171,39.7597158600129],[-105.002610044041,39.7597193795791],[-105.002624606975,39.7597222684112],[-105.002639352401,39.7597245269137],[-105.002654244547,39.7597261271756],[-105.002669212846,39.7597270688985],[-105.002684256645,39.7597273798398],[-105.002699269347,39.759727004029],[-105.002714251665,39.7597259692292],[-105.00272909596,39.7597243023941],[-105.002743838586,39.7597219488604],[-105.002758371969,39.7597189903992],[-105.002772660986,39.7597153720452],[-105.002786669735,39.7597111488152],[-105.0027790241,39.7596808364238],[-105.002770336002,39.7596820900318],[-105.002761546041,39.7596826843501],[-105.002752689731,39.7596826191774],[-105.002743909115,39.7596818958163],[-105.002735275673,39.7596805142176],[-105.002726824268,39.7596785019371],[-105.002718661696,39.7596758868344],[-105.002710895138,39.7596726423054],[-105.002703559072,39.75966885037],[-105.00269672478,39.759664538738],[-105.002690463089,39.7596597354686],[-105.002684809315,39.759654468471],[-105.002679869413,39.7596488197157],[-105.002675643445,39.759642844723],[-105.002672202242,39.7596365708493],[-105.00266954541,39.7596300536128],[-105.002667742939,39.7596233748322],[-105.002667501885,39.7596222483072],[-105.002655481087,39.7596270291475],[-105.00264307349,39.7596312043104],[-105.002630349658,39.7596347744454],[-105.002617345756,39.7596377119454],[-105.002604168971,39.7596399895031],[-105.002590782944,39.7596416624848],[-105.002577330761,39.7596426489182],[-105.002563811579,39.7596430036165],[-105.002550262212,39.759642671567],[-105.00253678789,39.7596417087343],[-105.002523425234,39.7596400875132],[-105.002510245266,39.7596378082039],[-105.002497247337,39.7596348982123],[-105.002484502927,39.7596313578405],[-105.002472083316,39.75962721515],[-105.002460023111,39.759622469584],[-105.002448394241,39.7596171221498],[-105.00244835873,39.7596171219997]],[[-105.003042009869,39.7594722925587],[-105.003040374196,39.759482223352],[-105.003037921624,39.7594920410622],[-105.003034615927,39.7595017177763],[-105.003030493914,39.759511199184],[-105.003025590839,39.7595204573228],[-105.003019907088,39.7595294377285],[-105.003013443313,39.7595381126439],[-105.003006270467,39.7595464279028],[-105.002998388551,39.7595543835051],[-105.002989869892,39.759561924236],[-105.002980713963,39.7595689959792],[-105.002970992246,39.7595755983334],[-105.002960705128,39.7595816768345],[-105.002949923635,39.7595872314309],[-105.002938683471,39.7595922352161],[-105.002927056957,39.7595966336784],[-105.002915078506,39.7596004536686],[-105.00290281998,39.759603641376],[-105.002890281188,39.7596062238566],[-105.002877569053,39.759608146745],[-105.002864719542,39.7596094101932],[-105.002853333148,39.7596099935522],[-105.002850613797,39.7596223081724],[-105.002847934088,39.7596289676677],[-105.002844323157,39.7596366116935],[-105.002842220199,39.7596422581036],[-105.002880158613,39.7596643528888],[-105.00296578698,39.7596123902197],[-105.003061369227,39.7595461664783],[-105.003068375893,39.759541254794],[-105.003077079365,39.7595327537822],[-105.003080861275,39.7595260985834],[-105.003081301063,39.7595192922325],[-105.003077218086,39.759513180815],[-105.003042009869,39.7594722925587]],[[-105.002769138494,39.7595600587041],[-105.002727591099,39.7595653736767],[-105.002702221284,39.7595916482548],[-105.002708751216,39.7596238502895],[-105.002742434013,39.7596441424235],[-105.002784154404,39.7596395422037],[-105.002808956603,39.7596129904228],[-105.002802041771,39.7595799086408],[-105.002769138494,39.7595600587041]]]},"properties":{"OBJECTID":5,"LOCATION":"Denver Skate Park","LOC_CODE":"924","GLOBALID":"5a5e76c8-abba-407b-bb59-202c9ab07cde","ASSET_CLASS":"SKATEP","CLASS_CATEGORY":"SK8-LG","GIS_ASSET_ID":50000,"INFOR_ASSET_ID":"109865","YEAR_BUILT":null}},{"type":"Feature","id":6,"geometry":{"type":"Polygon","coordinates":[[[-104.963774968553,39.785124447163],[-104.96365947188,39.7851248069948],[-104.963659025502,39.7851075507159],[-104.963654457819,39.7850914088935],[-104.963645373693,39.7850776951516],[-104.963631683684,39.7850654796582],[-104.963617306389,39.7850573120186],[-104.963601624706,39.7850507166981],[-104.963587184972,39.7850480599528],[-104.963569946024,39.7850469476332],[-104.963567813018,39.7849563600613],[-104.963588550464,39.7849553980824],[-104.963600240517,39.7849523810759],[-104.963610935422,39.7849463852041],[-104.963657852663,39.7849050754727],[-104.963675399235,39.7849279426108],[-104.963681252045,39.7849350587148],[-104.963699528539,39.784948307971],[-104.963732174353,39.7849707373427],[-104.963745922474,39.7849753574683],[-104.963778673141,39.7849841151157],[-104.963774968553,39.785124447163]]]},"properties":{"OBJECTID":6,"LOCATION":"Elyria","LOC_CODE":"204","GLOBALID":"bedfe358-1faf-4da5-b8de-0833400893f9","ASSET_CLASS":"SKATEP","CLASS_CATEGORY":"SK8-SM","GIS_ASSET_ID":50004,"INFOR_ASSET_ID":"109863","YEAR_BUILT":null}},{"type":"Feature","id":7,"geometry":{"type":"Polygon","coordinates":[[[-105.030922532681,39.7361095911526],[-105.030922488167,39.7360470361965],[-105.031218330009,39.7360482152037],[-105.031233562666,39.736049042548],[-105.031248026129,39.7360528241117],[-105.031260775549,39.7360593128581],[-105.031270978049,39.7360680848995],[-105.031368639611,39.736145106215],[-105.031243660501,39.7362414367134],[-105.03122188816,39.736241321161],[-105.031224398363,39.7361100792468],[-105.030922532681,39.7361095911526]]]},"properties":{"OBJECTID":7,"LOCATION":"Sanchez","LOC_CODE":"028","GLOBALID":"11026c6b-2d21-4015-b09d-89658172302d","ASSET_CLASS":"SKATEP","CLASS_CATEGORY":"SK8-SM","GIS_ASSET_ID":50006,"INFOR_ASSET_ID":null,"YEAR_BUILT":2020}},{"type":"Feature","id":327,"geometry":{"type":"Polygon","coordinates":[[[-105.03832148775,39.7108593291571],[-105.038218677241,39.7108409096291],[-105.038229805365,39.710837807612],[-105.038237231014,39.7108346912345],[-105.038244312671,39.7108275698654],[-105.038249919074,39.710819584769],[-105.038259959216,39.7108130469115],[-105.038269609971,39.7108093671927],[-105.038281835704,39.7108082712118],[-105.038291464103,39.7108080231456],[-105.038304770515,39.7108115069435],[-105.038311412431,39.7108149645808],[-105.038320245589,39.7108230063576],[-105.038325009928,39.7108304602651],[-105.038327545167,39.71083904922],[-105.03832746614,39.7108510594801],[-105.03832148775,39.7108593291571]]]},"properties":{"OBJECTID":327,"LOCATION":"Cuatro Vientos","LOC_CODE":"825","GLOBALID":"fbb17630-ba47-47b1-98a5-c8dfec5c9250","ASSET_CLASS":"SKATEP","CLASS_CATEGORY":"SK8-SM","GIS_ASSET_ID":50008,"INFOR_ASSET_ID":null,"YEAR_BUILT":2014}},{"type":"Feature","id":328,"geometry":{"type":"Polygon","coordinates":[[[-105.029404645638,39.7005997103458],[-105.029402446386,39.7004424019294],[-105.029480948836,39.7004209551604],[-105.029480621233,39.7004123152475],[-105.029573958754,39.7004100076465],[-105.029569662957,39.7004180334449],[-105.029621603609,39.7004358162154],[-105.029571985018,39.700531834312],[-105.029520020743,39.7006326091927],[-105.029404645638,39.7005997103458]]]},"properties":{"OBJECTID":328,"LOCATION":"Kentucky & Irving","LOC_CODE":"820","GLOBALID":"639dc9b7-509e-4303-8644-390e3ec9d4a7","ASSET_CLASS":"SKATEP","CLASS_CATEGORY":"SK8-SM","GIS_ASSET_ID":50009,"INFOR_ASSET_ID":null,"YEAR_BUILT":2023}},{"type":"Feature","id":728,"geometry":{"type":"Polygon","coordinates":[[[-105.031017746214,39.7234537399088],[-105.031021129882,39.7235938768968],[-105.030629196646,39.7235946968269],[-105.030628279406,39.7234550463328],[-105.030684228145,39.7234538614997],[-105.030712464687,39.7234539741397],[-105.030944495293,39.723453305033],[-105.030965825687,39.7234532825498],[-105.031017746214,39.7234537399088]]]},"properties":{"OBJECTID":728,"LOCATION":"Barnum Park","LOC_CODE":"804","GLOBALID":"8b3e7abe-dbb8-4afe-9f5e-24b3ee04e944","ASSET_CLASS":"SKATEP","CLASS_CATEGORY":"SK8-SM","GIS_ASSET_ID":50010,"INFOR_ASSET_ID":null,"YEAR_BUILT":2025}}]}