{"type":"FeatureCollection","crs":{"type":"name","properties":{"name":"EPSG:4326"}},"features":[{"type":"Feature","id":1,"geometry":{"type":"Point","coordinates":[-105.027720322271,39.7226134550729]},"properties":{"OBJECTID":1,"POOL_NAME":"Barnum Pool","LOC_CODE":"PB1","POOL_TYPE":"Outdoor","ADDRESS_ID":null,"ADDRESS_LINE1":"370 Hooker St","ADDRESS_LINE2":null,"CITY":"Denver","STATE":"CO","ZIP":null,"PHONE":"720-865-0359","PARK_LOCATION":"Barnum Recreation Center","GLOBALID":"1841d903-7958-40e4-acac-ad2daf590241","HOURS":"documents/rec_centers/barnumr.pdf","PHOTO":"images/Pools/No_Image.gif"}},{"type":"Feature","id":2,"geometry":{"type":"Point","coordinates":[-104.956254623246,39.7301757255527]},"properties":{"OBJECTID":2,"POOL_NAME":"Congress Pool","LOC_CODE":"PC1","POOL_TYPE":"Outdoor","ADDRESS_ID":null,"ADDRESS_LINE1":"914 Elizabeth St","ADDRESS_LINE2":"Stand-Alone Outdoor Pool Facility","CITY":"Denver","STATE":"CO","ZIP":null,"PHONE":"720-865-3370","PARK_LOCATION":"Congress Park","GLOBALID":"5f0ffb92-df80-42e0-93ed-25dcd4124a49","HOURS":"documents/rec_centers/congress.pdf","PHOTO":"images/Pools/No_Image.gif"}},{"type":"Feature","id":3,"geometry":{"type":"Point","coordinates":[-104.908743178841,39.6866392466116]},"properties":{"OBJECTID":3,"POOL_NAME":"Cook Pool","LOC_CODE":"PC3","POOL_TYPE":"Outdoor","ADDRESS_ID":null,"ADDRESS_LINE1":"1655 S Oneida","ADDRESS_LINE2":null,"CITY":"Denver","STATE":"CO","ZIP":null,"PHONE":"720-865-0629","PARK_LOCATION":"Cook Park","GLOBALID":"e9242b24-0c26-44e3-b2fd-6608abfa92df","HOURS":"documents/rec_centers/cook.pdf","PHOTO":"images/Pools/cookpark_pool.jpg"}},{"type":"Feature","id":4,"geometry":{"type":"Point","coordinates":[-105.035485344471,39.695305377334]},"properties":{"OBJECTID":4,"POOL_NAME":"Garfield Pool","LOC_CODE":"PG3","POOL_TYPE":"Outdoor","ADDRESS_ID":null,"ADDRESS_LINE1":"1295 S Lowell Blvd","ADDRESS_LINE2":"Stand-Alone Outdoor Pool Facility","CITY":"Denver","STATE":"CO","ZIP":null,"PHONE":"303-937-4612","PARK_LOCATION":"Garfield Lake Park","GLOBALID":"0d785c74-6934-42b0-a85c-08838af9667c","HOURS":"documents/rec_centers/garfield.pdf","PHOTO":"images/Pools/No_Image.gif"}},{"type":"Feature","id":5,"geometry":{"type":"Point","coordinates":[-104.981696558721,39.6743541891207]},"properties":{"OBJECTID":5,"POOL_NAME":"Harvard Gulch Pool","LOC_CODE":"PH1","POOL_TYPE":"Outdoor","ADDRESS_ID":null,"ADDRESS_LINE1":"550 E Iliff Ave","ADDRESS_LINE2":null,"CITY":"Denver","STATE":"CO","ZIP":null,"PHONE":"720-865-0914","PARK_LOCATION":"Harvard Gulch Park","GLOBALID":"c8d0f1ba-16ff-462f-9124-4138a6fa3b34","HOURS":"documents/rec_centers/harvard.pdf","PHOTO":"images/Pools/No_Image.gif"}},{"type":"Feature","id":6,"geometry":{"type":"Point","coordinates":[-105.041430307096,39.6781322693261]},"properties":{"OBJECTID":6,"POOL_NAME":"Harvey Park Pool","LOC_CODE":"PH2","POOL_TYPE":"Outdoor","ADDRESS_ID":null,"ADDRESS_LINE1":"2150 S Tennyson Wy","ADDRESS_LINE2":null,"CITY":"Denver","STATE":"CO","ZIP":null,"PHONE":"720-865-0557","PARK_LOCATION":"Harvey Park","GLOBALID":"c7abb297-6bf2-4397-919b-5781526e0842","HOURS":"documents/rec_centers/harvey.pdf","PHOTO":"images/Pools/No_Image.gif"}},{"type":"Feature","id":7,"geometry":{"type":"Point","coordinates":[-105.004737146686,39.7341594665466]},"properties":{"OBJECTID":7,"POOL_NAME":"La Alma Pool","LOC_CODE":"PL1","POOL_TYPE":"Outdoor","ADDRESS_ID":null,"ADDRESS_LINE1":"1120 Osage St","ADDRESS_LINE2":null,"CITY":"Denver","STATE":"CO","ZIP":null,"PHONE":"720-865-2208","PARK_LOCATION":"La Alma / Lincoln Park","GLOBALID":"6e19b53c-cd44-4980-94d1-fdeb00d8dac2","HOURS":"documents/rec_centers/laalma.pdf","PHOTO":"images/Pools/No_Image.gif"}},{"type":"Feature","id":8,"geometry":{"type":"Point","coordinates":[-104.975132211552,39.7615955193444]},"properties":{"OBJECTID":8,"POOL_NAME":"Mestizo-Curtis Pool","LOC_CODE":"PC5","POOL_TYPE":"Outdoor","ADDRESS_ID":null,"ADDRESS_LINE1":"3181 Champa St","ADDRESS_LINE2":"Stand-Alone Outdoor Pool Facility","CITY":"Denver","STATE":"CO","ZIP":null,"PHONE":"303-292-2363","PARK_LOCATION":"Mestizo-Curtis Park","GLOBALID":"e974e0f9-c952-43ac-83ff-321c8d2f3627","HOURS":"documents/rec_centers/mestizo.pdf","PHOTO":"images/Pools/No_Image.gif"}},{"type":"Feature","id":9,"geometry":{"type":"Point","coordinates":[-105.09963883803,39.6289686250891]},"properties":{"OBJECTID":9,"POOL_NAME":"Southwest Pool","LOC_CODE":"PS5","POOL_TYPE":"Outdoor","ADDRESS_ID":null,"ADDRESS_LINE1":"9200 W Saratoga Pl","ADDRESS_LINE2":null,"CITY":"Denver","STATE":"CO","ZIP":null,"PHONE":"720-865-0673","PARK_LOCATION":"Southwest Recreation Center","GLOBALID":"4100d225-00f4-44e4-9131-c2c5b46d768d","HOURS":"documents/rec_centers/southwest.pdf","PHOTO":"images/Pools/No_Image.gif"}},{"type":"Feature","id":10,"geometry":{"type":"Point","coordinates":[-105.051796790372,39.7814765381532]},"properties":{"OBJECTID":10,"POOL_NAME":"Berkeley Pool","LOC_CODE":"PB2","POOL_TYPE":"Outdoor","ADDRESS_ID":null,"ADDRESS_LINE1":"5105 W 46th Ave","ADDRESS_LINE2":null,"CITY":"Denver","STATE":"CO","ZIP":null,"PHONE":"720-865-0653","PARK_LOCATION":"Berkeley Lake Park","GLOBALID":"ade2a48b-cce0-495d-86df-dce2a451147e","HOURS":"documents/rec_centers/berkeley.pdf","PHOTO":"images/Pools/No_Image.gif"}},{"type":"Feature","id":12,"geometry":{"type":"Point","coordinates":[-105.004545222256,39.7772464093187]},"properties":{"OBJECTID":12,"POOL_NAME":"Aztlan Pool","LOC_CODE":"PA3","POOL_TYPE":"Outdoor","ADDRESS_ID":null,"ADDRESS_LINE1":"4435 Navajo St","ADDRESS_LINE2":null,"CITY":"Denver","STATE":"CO","ZIP":null,"PHONE":"720-865-4389","PARK_LOCATION":"Aztlan Recreation Center","GLOBALID":"a1a61e25-c32b-4f67-90f0-63360f561064","HOURS":"documents/rec_centers/aztlan.pdf","PHOTO":"images/Pools/aztlan_pool.jpg"}},{"type":"Feature","id":13,"geometry":{"type":"Point","coordinates":[-104.937572415526,39.6593421470392]},"properties":{"OBJECTID":13,"POOL_NAME":"Eisenhower Pool","LOC_CODE":"PE1","POOL_TYPE":"Outdoor","ADDRESS_ID":null,"ADDRESS_LINE1":"4300 E Dartmouth Ave","ADDRESS_LINE2":null,"CITY":"Denver","STATE":"CO","ZIP":null,"PHONE":"720-865-0739","PARK_LOCATION":"Eisenhower Park","GLOBALID":"d5586ae9-76d7-4af8-bad9-a2745d8e03b1","HOURS":"documents/rec_centers/eisenhower.pdf","PHOTO":"images/Pools/No_Image.gif"}},{"type":"Feature","id":14,"geometry":{"type":"Point","coordinates":[-104.981827197712,39.7823570761375]},"properties":{"OBJECTID":14,"POOL_NAME":"Globeville Pool","LOC_CODE":"PG2","POOL_TYPE":"Outdoor","ADDRESS_ID":null,"ADDRESS_LINE1":"4700 Logan St","ADDRESS_LINE2":"Stand-Alone Outdoor Pool Facility","CITY":"Denver","STATE":"CO","ZIP":null,"PHONE":"303-292-2358","PARK_LOCATION":"Argo Park","GLOBALID":"44fcbe5b-fda6-42f0-81dd-934ca2d1c54e","HOURS":"documents/rec_centers/globeviller.pdf","PHOTO":"images/Pools/No_Image.gif"}},{"type":"Feature","id":15,"geometry":{"type":"Point","coordinates":[-104.750243393064,39.778721247439]},"properties":{"OBJECTID":15,"POOL_NAME":"Green Valley Ranch Pool","LOC_CODE":"PG4","POOL_TYPE":"Outdoor","ADDRESS_ID":null,"ADDRESS_LINE1":"4455 Jebel St","ADDRESS_LINE2":"Stand-Alone Outdoor Pool Facility","CITY":"Denver","STATE":"CO","ZIP":null,"PHONE":"303-373-8713","PARK_LOCATION":"Green Valley Ranch East Park","GLOBALID":"16e7cf56-3631-4c23-a271-593bf48edb95","HOURS":"documents/rec_centers/gvr.pdf","PHOTO":"images/Pools/No_Image.gif"}},{"type":"Feature","id":16,"geometry":{"type":"Point","coordinates":[-104.955663061371,39.7848656938759]},"properties":{"OBJECTID":16,"POOL_NAME":"Swansea Pool","LOC_CODE":"PS4","POOL_TYPE":"Indoor","ADDRESS_ID":null,"ADDRESS_LINE1":"2650 E 49th Ave","ADDRESS_LINE2":null,"CITY":"Denver","STATE":"CO","ZIP":null,"PHONE":"303-295-9462","PARK_LOCATION":"Swansea Park","GLOBALID":"88bf2e1b-bd65-4860-bd84-c2848fa26eed","HOURS":"documents/rec_centers/swansea.pdf","PHOTO":"images/Pools/No_Image.gif"}},{"type":"Feature","id":17,"geometry":{"type":"Point","coordinates":[-105.017691966436,39.7597662412012]},"properties":{"OBJECTID":17,"POOL_NAME":"Ashland Indoor Pool","LOC_CODE":"PA1","POOL_TYPE":"Indoor","ADDRESS_ID":null,"ADDRESS_LINE1":"2501 W Dunkfield Pl","ADDRESS_LINE2":null,"CITY":"Denver","STATE":"CO","ZIP":null,"PHONE":"720-865-0510","PARK_LOCATION":"Ashland Recreation Center","GLOBALID":"0a7d2409-f2be-46c1-a24c-3093f6d89dd9","HOURS":"documents/rec_centers/Ashland_Calendar.pdf","PHOTO":"images/Pools/ashland_indoorpool.jpg"}},{"type":"Feature","id":18,"geometry":{"type":"Point","coordinates":[-105.019685982993,39.6855091883793]},"properties":{"OBJECTID":18,"POOL_NAME":"Athmar Recreation Center","LOC_CODE":"PA2","POOL_TYPE":"Indoor","ADDRESS_ID":null,"ADDRESS_LINE1":"2680 W Mexico Av","ADDRESS_LINE2":null,"CITY":"Denver","STATE":"CO","ZIP":null,"PHONE":"720-865-2180","PARK_LOCATION":"Athmar Recreation Center","GLOBALID":"f6499799-f415-4e30-8fe3-02fa55feae8f","HOURS":"documents/rec_centers/Athmar_Calendar.pdf","PHOTO":"images/Pools/No_Image.gif"}},{"type":"Feature","id":19,"geometry":{"type":"Point","coordinates":[-104.975218217776,39.7550573667292]},"properties":{"OBJECTID":19,"POOL_NAME":"Glenarm Recreation Center","LOC_CODE":"PG1","POOL_TYPE":"Indoor","ADDRESS_ID":null,"ADDRESS_LINE1":"2800 Glenarm Pl","ADDRESS_LINE2":null,"CITY":"Denver","STATE":"CO","ZIP":null,"PHONE":"720-865-3380","PARK_LOCATION":"Glenarm Recreation Center","GLOBALID":"9624f82d-444d-4045-bbe2-76e25bf2f98a","HOURS":"documents/rec_centers/Glenarm_Calendar.pdf","PHOTO":"images/Pools/glenarm_indoorpool.jpg"}},{"type":"Feature","id":20,"geometry":{"type":"Point","coordinates":[-104.994364178769,39.7157094768759]},"properties":{"OBJECTID":20,"POOL_NAME":"La Familia Recreation Center","LOC_CODE":"PL2","POOL_TYPE":"Indoor","ADDRESS_ID":null,"ADDRESS_LINE1":"65 S Elati St","ADDRESS_LINE2":null,"CITY":"Denver","STATE":"CO","ZIP":null,"PHONE":"720-865-2170","PARK_LOCATION":"La Familia Recreation Center","GLOBALID":"68ccd8fb-9fef-4a15-b7d9-e0eb10513bb0","HOURS":"documents/rec_centers/LaFamilia_Calendar.pdf","PHOTO":"images/Pools/No_Image.gif"}},{"type":"Feature","id":21,"geometry":{"type":"Point","coordinates":[-104.909280391661,39.7707185283196]},"properties":{"OBJECTID":21,"POOL_NAME":"Martin Luther King Jr Recreation Center (Lap Pool)","LOC_CODE":"PK1","POOL_TYPE":"Indoor","ADDRESS_ID":null,"ADDRESS_LINE1":"3880 Newport St","ADDRESS_LINE2":null,"CITY":"Denver","STATE":"CO","ZIP":null,"PHONE":"720-865-0530","PARK_LOCATION":"Martin Luther King Jr Park","GLOBALID":"b83c523e-5423-4072-8e13-029c8efc7e58","HOURS":"documents/rec_centers/MLK_Calendar.pdf","PHOTO":"images/Pools/mlk_indoorpool.jpg"}},{"type":"Feature","id":22,"geometry":{"type":"Point","coordinates":[-104.80559790161,39.7927378762462]},"properties":{"OBJECTID":22,"POOL_NAME":"Montbello Recreation Center","LOC_CODE":"PM2","POOL_TYPE":"Indoor","ADDRESS_ID":null,"ADDRESS_LINE1":"15555 E 53rd Ave","ADDRESS_LINE2":null,"CITY":"Denver","STATE":"CO","ZIP":null,"PHONE":"720-865-0580","PARK_LOCATION":"Parkfield","GLOBALID":"3ed00792-fb2e-454b-9792-bcafef498423","HOURS":"documents/rec_centers/Montbello_Calendar.pdf","PHOTO":"images/Pools/montbello_indoorpool.jpg"}},{"type":"Feature","id":23,"geometry":{"type":"Point","coordinates":[-105.022737186651,39.736469763353]},"properties":{"OBJECTID":23,"POOL_NAME":"Rude Recreation Center","LOC_CODE":"PR1","POOL_TYPE":"Indoor","ADDRESS_ID":null,"ADDRESS_LINE1":"2855 W Holden Pl","ADDRESS_LINE2":null,"CITY":"Denver","STATE":"CO","ZIP":null,"PHONE":"720-865-0570","PARK_LOCATION":"Rude Park","GLOBALID":"2b4282ff-569b-4d3f-8498-2445695c7ef8","HOURS":"documents/rec_centers/Rude_Calendar.pdf","PHOTO":"images/Pools/rude_indoorpool.jpg"}},{"type":"Feature","id":24,"geometry":{"type":"Point","coordinates":[-105.051237379528,39.7813858883055]},"properties":{"OBJECTID":24,"POOL_NAME":"Scheitler Recreation Center","LOC_CODE":"PB3","POOL_TYPE":"Indoor","ADDRESS_ID":null,"ADDRESS_LINE1":"5031 W 46th Av","ADDRESS_LINE2":null,"CITY":"Denver","STATE":"CO","ZIP":null,"PHONE":"720-865-0640","PARK_LOCATION":"Berkeley Lake Park","GLOBALID":"25b4db58-52dc-476d-b4fb-fae29ef9707f","HOURS":"documents/rec_centers/Scheitler_Calendar.pdf","PHOTO":"images/Pools/No_Image.gif"}},{"type":"Feature","id":25,"geometry":{"type":"Point","coordinates":[-104.989984995103,39.7513722638438]},"properties":{"OBJECTID":25,"POOL_NAME":"Twentieth Street Recreation Center","LOC_CODE":"PT1","POOL_TYPE":"Indoor","ADDRESS_ID":null,"ADDRESS_LINE1":"1011 20th St","ADDRESS_LINE2":null,"CITY":"Denver","STATE":"CO","ZIP":null,"PHONE":"720-865-0520","PARK_LOCATION":"Twentieth Street Recreation Center","GLOBALID":"f3613180-e449-4e16-abd4-fe647840dc17","HOURS":"documents/rec_centers/TwentiethSt_Calendar.pdf","PHOTO":"images/Pools/20th_indoorpool.jpg"}},{"type":"Feature","id":26,"geometry":{"type":"Point","coordinates":[-104.970527940849,39.7026340840272]},"properties":{"OBJECTID":26,"POOL_NAME":"Washington Park Recreation Center","LOC_CODE":"PW1","POOL_TYPE":"Indoor","ADDRESS_ID":null,"ADDRESS_LINE1":"701 S Franklin St","ADDRESS_LINE2":null,"CITY":"Denver","STATE":"CO","ZIP":null,"PHONE":"720-865-3400","PARK_LOCATION":"Washington Park","GLOBALID":"cf94cbd7-041e-4bc7-800b-ba9da363cf0e","HOURS":"documents/rec_centers/Washington_Calendar.pdf","PHOTO":"images/Pools/washpark_indoorpool.jpg"}},{"type":"Feature","id":27,"geometry":{"type":"Point","coordinates":[-104.921814128616,39.7642926961669]},"properties":{"OBJECTID":27,"POOL_NAME":"Hiawatha Davis Jr Recreation Center","LOC_CODE":"PS1","POOL_TYPE":"Indoor","ADDRESS_ID":null,"ADDRESS_LINE1":"3334 Holly St","ADDRESS_LINE2":null,"CITY":"Denver","STATE":"CO","ZIP":null,"PHONE":"720-865-0590","PARK_LOCATION":"Skyland Park","GLOBALID":"9671b0f8-0708-43e3-a498-8e02a13ba40d","HOURS":"documents/rec_centers/HiawathaDavis_Calendar.pdf","PHOTO":"images/Pools/No_Image.gif"}},{"type":"Feature","id":28,"geometry":{"type":"Point","coordinates":[-104.894693355818,39.7273795758742]},"properties":{"OBJECTID":28,"POOL_NAME":"Montclair Recreation Center","LOC_CODE":"PM4","POOL_TYPE":"Indoor","ADDRESS_ID":null,"ADDRESS_LINE1":"729 Ulster Way","ADDRESS_LINE2":null,"CITY":"Denver","STATE":"CO","ZIP":null,"PHONE":"720-865-0560","PARK_LOCATION":"Monclair Recreation Center","GLOBALID":"3426ad21-8219-4f03-b5f2-e98b5f6db68f","HOURS":"documents/rec_centers/Montclair_Calendar.pdf","PHOTO":"images/Pools/montclair_indoorpool.jpg"}},{"type":"Feature","id":29,"geometry":{"type":"Point","coordinates":[-104.874923790252,39.7609866536755]},"properties":{"OBJECTID":29,"POOL_NAME":"Central Park Recreation Center","LOC_CODE":"PC4","POOL_TYPE":"Indoor","ADDRESS_ID":null,"ADDRESS_LINE1":"9651 E Martin Luther King Blvd","ADDRESS_LINE2":null,"CITY":"Denver","STATE":"CO","ZIP":null,"PHONE":"720-865-0750","PARK_LOCATION":"Central Park Recreation Center","GLOBALID":"457ec73a-93e3-4e55-9362-ce39903789ab","HOURS":"documents/rec_centers/CentralPark_Calendar.pdf","PHOTO":"images/Pools/No_Image.gif"}},{"type":"Feature","id":30,"geometry":{"type":"Point","coordinates":[-104.958501230826,39.7407547446004]},"properties":{"OBJECTID":30,"POOL_NAME":"Carla Madison Recreation Center (Leisure Pool)","LOC_CODE":"RM4","POOL_TYPE":"Indoor","ADDRESS_ID":null,"ADDRESS_LINE1":"2401 E Colfax Ave","ADDRESS_LINE2":null,"CITY":"Denver","STATE":"CO","ZIP":null,"PHONE":"720-865-5580","PARK_LOCATION":"Carla Madison Recreation Center","GLOBALID":"63f451f0-e204-47dc-8f4f-ccb381664404","HOURS":null,"PHOTO":"images/Pools/No_Image.gif"}},{"type":"Feature","id":31,"geometry":{"type":"Point","coordinates":[-104.958377798386,39.7404757140721]},"properties":{"OBJECTID":31,"POOL_NAME":"Carla Madison Recreation Center (Lap Pool)","LOC_CODE":"RM4","POOL_TYPE":"Indoor","ADDRESS_ID":null,"ADDRESS_LINE1":"2401 E Colfax Ave","ADDRESS_LINE2":null,"CITY":"Denver","STATE":"CO","ZIP":null,"PHONE":"720-865-5580","PARK_LOCATION":"Carla Madison Recreation Center","GLOBALID":"00593038-cb9b-46c3-92b2-1a0a7d15285a","HOURS":null,"PHOTO":"images/Pools/No_Image.gif"}},{"type":"Feature","id":32,"geometry":{"type":"Point","coordinates":[-104.909280391661,39.7707185283196]},"properties":{"OBJECTID":32,"POOL_NAME":"Martin Luther King Jr Recreation Center (Therapy Pool)","LOC_CODE":"PK1","POOL_TYPE":"Indoor","ADDRESS_ID":null,"ADDRESS_LINE1":"3880 Newport St","ADDRESS_LINE2":null,"CITY":"Denver","STATE":"CO","ZIP":null,"PHONE":"720-865-0530","PARK_LOCATION":"Martin Luther King Jr Park","GLOBALID":"8b37c8e4-9ce0-4a66-962f-7adf7836e610","HOURS":"documents/rec_centers/MLK_Calendar.pdf","PHOTO":"images/Pools/mlk_indoorpool.jpg"}},{"type":"Feature","id":33,"geometry":{"type":"Point","coordinates":[-104.766691634682,39.7856362326142]},"properties":{"OBJECTID":33,"POOL_NAME":"Green Valley Ranch Recreation Center","LOC_CODE":"PG5","POOL_TYPE":"Indoor","ADDRESS_ID":null,"ADDRESS_LINE1":"4890 Argonne Way","ADDRESS_LINE2":null,"CITY":"Denver","STATE":"CO","ZIP":null,"PHONE":null,"PARK_LOCATION":"Town Center Park","GLOBALID":"076858ad-af6d-4975-8f31-d3f8fd3bcf47","HOURS":null,"PHOTO":null}}]}